{"name":"Mobilitystandort","type":"FeatureCollection"
,"crs":{"type":"name","properties":{"name":"EPSG:2056"}}
,"features":[
{"type":"Feature","geometry":{"type":"Point","coordinates":[2682474.89304344,1247454.83647916]},"properties":{"adresse":"Werdstrasse 21","name":"Zürich Werd / Werdstrasse","ort":"Zürich","plz":"8004","www":"http://www.mobility.ch"}}
,{"type":"Feature","geometry":{"type":"Point","coordinates":[2681438.88884933,1246131.84811947]},"properties":{"adresse":"Uetlibergstrasse 124","name":"Zürich Post Giesshübel / Uetlibergstrasse","ort":"Zürich","plz":"8045","www":"http://www.mobility.ch"}}
,{"type":"Feature","geometry":{"type":"Point","coordinates":[2687966.88222483,1244645.79980199]},"properties":{"adresse":"In der Tiefe 3","name":"Zollikerberg In der Tiefe","ort":"Zollikerberg","plz":"8125","www":"http://www.mobility.ch"}}
,{"type":"Feature","geometry":{"type":"Point","coordinates":[2686079.92883035,1251345.83082724]},"properties":{"adresse":"Luegislandstrasse 498","name":"Zürich Luegislandstrasse","ort":"Zürich","plz":"8051","www":"http://www.mobility.ch"}}
,{"type":"Feature","geometry":{"type":"Point","coordinates":[2681617.91131915,1249157.85039404]},"properties":{"adresse":"Hardstrasse 245","name":"Zürich Hardstrasse / Schiffbau","ort":"Zürich","plz":"8005","www":"http://www.mobility.ch"}}
,{"type":"Feature","geometry":{"type":"Point","coordinates":[2683515.92310378,1251819.84588145]},"properties":{"adresse":"Hofwiesenstrasse 379","name":"Zürich Oerlikon Bahnhof / Pestalozzi-Bibliothek","ort":"Zürich","plz":"8050","www":"http://www.mobility.ch"}}
,{"type":"Feature","geometry":{"type":"Point","coordinates":[2683710.89849757,1248146.83473231]},"properties":{"adresse":"Sonneggstrasse 5","name":"Zürich Sonneggstrasse","ort":"Zürich","plz":"8006","www":"http://www.mobility.ch"}}
,{"type":"Feature","geometry":{"type":"Point","coordinates":[2681814.88874315,1246334.8439011]},"properties":{"adresse":"Eichstrasse 1/3/5","name":"Zürich Giesshübel Bahnhof","ort":"Zürich","plz":"8045","www":"http://www.mobility.ch"}}
,{"type":"Feature","geometry":{"type":"Point","coordinates":[2681442.90887505,1248854.85026327]},"properties":{"adresse":"Maagplatz 1","name":"Zürich Hardbrücke Bahnhof / Prime Tower","ort":"Zürich","plz":"8005","www":"http://www.mobility.ch"}}
,{"type":"Feature","geometry":{"type":"Point","coordinates":[2681354.90041768,1247940.84671889]},"properties":{"adresse":"Agnesstrasse 2","name":"Zürich Agnesstrasse","ort":"Zürich","plz":"8004","www":"http://www.mobility.ch"}}
,{"type":"Feature","geometry":{"type":"Point","coordinates":[2680601.89661662,1246996.85533899]},"properties":{"adresse":"Wasserschöpfi 77","name":"Zürich Wasserschöpfi","ort":"Zürich","plz":"8055","www":"http://www.mobility.ch"}}
,{"type":"Feature","geometry":{"type":"Point","coordinates":[2685480.86638428,1243572.82866432]},"properties":{"adresse":"Bahnhofstrasse 20","name":"Zollikon Bahnhof","ort":"Zollikon","plz":"8702","www":"http://www.mobility.ch"}}
,{"type":"Feature","geometry":{"type":"Point","coordinates":[2690894.88048471,1247292.84248212]},"properties":{"adresse":"Wigartenstrasse 13","name":"Fällanden Verkehrsgarten","ort":"Fällanden","plz":"8117","www":"http://www.mobility.ch"}}
,{"type":"Feature","geometry":{"type":"Point","coordinates":[2682480.98051252,1256515.87918845]},"properties":{"adresse":"Bahnhofplatz 10","name":"Rümlang Bahnhof","ort":"Rümlang","plz":"8153","www":"http://www.mobility.ch"}}
,{"type":"Feature","geometry":{"type":"Point","coordinates":[2674327.95638773,1248848.87631807]},"properties":{"adresse":"Feldstrasse 61","name":"Urdorf Feldstrasse","ort":"Urdorf","plz":"8902","www":"http://www.mobility.ch"}}
,{"type":"Feature","geometry":{"type":"Point","coordinates":[2679898.89257462,1246933.86344217]},"properties":{"adresse":"Birmensdorferstrasse 486","name":"Zürich Triemli / Birmensdorferstrasse","ort":"Zürich","plz":"8055","www":"http://www.mobility.ch"}}
,{"type":"Feature","geometry":{"type":"Point","coordinates":[2679765.8916275,1247258.86468742]},"properties":{"adresse":"Alfred-Strebel-Weg 9","name":"Zürich Schulhaus Altweg / Alfred-Strebel-Weg","ort":"Zürich","plz":"8047","www":"http://www.mobility.ch"}}
,{"type":"Feature","geometry":{"type":"Point","coordinates":[2685277.89387924,1246007.81205399]},"properties":{"adresse":"Hammerstrasse 106","name":"Zürich Hirslanden / Hammerstrasse","ort":"Zürich","plz":"8032","www":"http://www.mobility.ch"}}
,{"type":"Feature","geometry":{"type":"Point","coordinates":[2681929.91573885,1249741.85119676]},"properties":{"adresse":"Wipkingerweg 4","name":"Zürich Wipkingen / Wipkingerplatz","ort":"Zürich","plz":"8037","www":"http://www.mobility.ch"}}
,{"type":"Feature","geometry":{"type":"Point","coordinates":[2681555.93152464,1252074.85671481]},"properties":{"adresse":"Binzmühlestrasse 405","name":"Zürich Neu-Affoltern","ort":"Zürich","plz":"8046","www":"http://www.mobility.ch"}}
,{"type":"Feature","geometry":{"type":"Point","coordinates":[2678667.91302153,1248617.86442761]},"properties":{"adresse":"Eulenweg 29-31","name":"Zürich Altstetten / Zwischenbächen","ort":"Zürich","plz":"8048","www":"http://www.mobility.ch"}}
,{"type":"Feature","geometry":{"type":"Point","coordinates":[2684535.91891618,1250873.83820344]},"properties":{"adresse":"Frohburgstrasse 311","name":"Zürich Frohburg","ort":"Zürich","plz":"8057","www":"http://www.mobility.ch"}}
,{"type":"Feature","geometry":{"type":"Point","coordinates":[2685651.87344248,1243980.81669693]},"properties":{"adresse":"Zollikerstrasse 65","name":"Zollikon Zollikerstrasse","ort":"Zollikon","plz":"8702","www":"http://www.mobility.ch"}}
,{"type":"Feature","geometry":{"type":"Point","coordinates":[2683466.90822538,1249655.84101704]},"properties":{"adresse":"Zanggerweg 9","name":"Zürich Zanggerweg","ort":"Zürich","plz":"8006","www":"http://www.mobility.ch"}}
,{"type":"Feature","geometry":{"type":"Point","coordinates":[2684766.89281499,1245491.81986684]},"properties":{"adresse":"Altenhofstrasse 45","name":"Zürich Altenhofstrasse","ort":"Zürich","plz":"8008","www":"http://www.mobility.ch"}}
,{"type":"Feature","geometry":{"type":"Point","coordinates":[2679991.93612865,1250955.8593888]},"properties":{"adresse":"Ferdinand-Hodler-Strasse 37","name":"Zürich Ferdinand-Hodler-Strasse","ort":"Zürich","plz":"8049","www":"http://www.mobility.ch"}}
,{"type":"Feature","geometry":{"type":"Point","coordinates":[2683840.90022657,1247673.834822]},"properties":{"adresse":"Rämistrasse 71","name":"Zürich UNI / ETH","ort":"Zürich","plz":"8006","www":"http://www.mobility.ch"}}
,{"type":"Feature","geometry":{"type":"Point","coordinates":[2683597.91449416,1250697.84302938]},"properties":{"adresse":"Schaffhauserstrasse 222","name":"Zürich Hirschgarten","ort":"Zürich","plz":"8057","www":"http://www.mobility.ch"}}
,{"type":"Feature","geometry":{"type":"Point","coordinates":[2682326.90512358,1248727.84373617]},"properties":{"adresse":"Gasometerstrasse 23","name":"Zürich Limmatplatz / Gasometerstrasse","ort":"Zürich","plz":"8005","www":"http://www.mobility.ch"}}
,{"type":"Feature","geometry":{"type":"Point","coordinates":[2685212.89710757,1246428.81411522]},"properties":{"adresse":"Sempacherstrasse 15","name":"Zürich Klusplatz","ort":"Zürich","plz":"8032","www":"http://www.mobility.ch"}}
,{"type":"Feature","geometry":{"type":"Point","coordinates":[2680910.90570738,1248382.85191701]},"properties":{"adresse":"Bullingerstrasse 73","name":"Zürich Aussersihl / Bullingerstrasse","ort":"Zürich","plz":"8004","www":"http://www.mobility.ch"}}
,{"type":"Feature","geometry":{"type":"Point","coordinates":[2679952.916466,1248963.85709302]},"properties":{"adresse":"Baslerstrasse 52","name":"Zürich Letzipark / Baslerstrasse","ort":"Zürich","plz":"8048","www":"http://www.mobility.ch"}}
,{"type":"Feature","geometry":{"type":"Point","coordinates":[2681535.89692506,1247574.84472698]},"properties":{"adresse":"Weststrasse 164","name":"Zürich Weststrasse / Haslerstrasse","ort":"Zürich","plz":"8003","www":"http://www.mobility.ch"}}
,{"type":"Feature","geometry":{"type":"Point","coordinates":[2683179.90799068,1249413.84227008]},"properties":{"adresse":"Riedtlistrasse 11","name":"Zürich Schaffhauserplatz / Riedtlistrasse","ort":"Zürich","plz":"8006","www":"http://www.mobility.ch"}}
,{"type":"Feature","geometry":{"type":"Point","coordinates":[2682543.91764547,1250415.84931435]},"properties":{"adresse":"Rötelstrasse 150","name":"Zürich Bucheggplatz / Rötelstrasse","ort":"Zürich","plz":"8037","www":"http://www.mobility.ch"}}
,{"type":"Feature","geometry":{"type":"Point","coordinates":[2682263.90675503,1248882.84488993]},"properties":{"adresse":"Quellenstrasse 31","name":"Zürich Limmatplatz / Quellenstrasse","ort":"Zürich","plz":"8005","www":"http://www.mobility.ch"}}
,{"type":"Feature","geometry":{"type":"Point","coordinates":[2678202.92508936,1249807.89087419]},"properties":{"adresse":"Hermetschloostrasse 70","name":"Zürich Altstetten / Hermetschloostrasse","ort":"Zürich","plz":"8048","www":"http://www.mobility.ch"}}
,{"type":"Feature","geometry":{"type":"Point","coordinates":[2679775.93549504,1250760.85967471]},"properties":{"adresse":"Wieslergasse 3","name":"Zürich Höngg / Wieslergasse","ort":"Zürich","plz":"8049","www":"http://www.mobility.ch"}}
,{"type":"Feature","geometry":{"type":"Point","coordinates":[2683766.91951433,1251274.84375052]},"properties":{"adresse":"Schaffhauserstrasse 308","name":"Zürich Oerlikon / Salersteig","ort":"Zürich","plz":"8050","www":"http://www.mobility.ch"}}
,{"type":"Feature","geometry":{"type":"Point","coordinates":[2683336.90496524,1249137.8400065]},"properties":{"adresse":"Turnerstrasse 47","name":"Zürich Turnerstrasse","ort":"Zürich","plz":"8006","www":"http://www.mobility.ch"}}
,{"type":"Feature","geometry":{"type":"Point","coordinates":[2680943.91829499,1249609.85574365]},"properties":{"adresse":"Förrlibuckstrasse 178","name":"Zürich Fischerweg / Förrlibuckstrasse","ort":"Zürich","plz":"8005","www":"http://www.mobility.ch"}}
,{"type":"Feature","geometry":{"type":"Point","coordinates":[2673012.95250597,1251458.93321742]},"properties":{"adresse":"Alfred-Comte-Strasse 3","name":"Dietikon Limmatfeld","ort":"Dietikon","plz":"8953","www":"http://www.mobility.ch"}}
,{"type":"Feature","geometry":{"type":"Point","coordinates":[2682713.92052722,1250973.84972247]},"properties":{"adresse":"Birchstrasse 3","name":"Zürich Birchstrasse / Wehntalerstrasse","ort":"Zürich","plz":"8057","www":"http://www.mobility.ch"}}
,{"type":"Feature","geometry":{"type":"Point","coordinates":[2681657.88974067,1246502.84528454]},"properties":{"adresse":"Austrasse 44/46","name":"Zürich Manesseplatz / Austrasse","ort":"Zürich","plz":"8045","www":"http://www.mobility.ch"}}
,{"type":"Feature","geometry":{"type":"Point","coordinates":[2681736.91608652,1249698.85208977]},"properties":{"adresse":"Breitensteinstrasse 19","name":"Zürich Wipkingen / Breitensteinstrasse","ort":"Zürich","plz":"8037","www":"http://www.mobility.ch"}}
,{"type":"Feature","geometry":{"type":"Point","coordinates":[2682140.88866615,1246514.84023771]},"properties":{"adresse":"Brandschenkestrasse ","name":"Zürich Enge / Brandschenkestrasse","ort":"Zürich","plz":"8002","www":"http://www.mobility.ch"}}
,{"type":"Feature","geometry":{"type":"Point","coordinates":[2684725.89942437,1246330.82303563]},"properties":{"adresse":"Forchstrasse 95","name":"Zürich Hegibachplatz / Minervastrasse","ort":"Zürich","plz":"8032","www":"http://www.mobility.ch"}}
,{"type":"Feature","geometry":{"type":"Point","coordinates":[2683325.90040925,1248625.83745814]},"properties":{"adresse":"Obstgartenstrasse 21 ","name":"Zürich Unterstrass / Obstgartenstrasse","ort":"Zürich","plz":"8006","www":"http://www.mobility.ch"}}
,{"type":"Feature","geometry":{"type":"Point","coordinates":[2684045.91969638,1251174.84187658]},"properties":{"adresse":"Salvatorstrasse 8","name":"Zürich Oerlikon / Salvatorstrasse","ort":"Zürich","plz":"8050","www":"http://www.mobility.ch"}}
,{"type":"Feature","geometry":{"type":"Point","coordinates":[2684995.89632197,1246114.81754783]},"properties":{"adresse":"Forchstrasse 144","name":"Zürich Hirslanden / Forchstrasse","ort":"Zürich","plz":"8032","www":"http://www.mobility.ch"}}
,{"type":"Feature","geometry":{"type":"Point","coordinates":[2682859.85962816,1241336.8335545]},"properties":{"adresse":"Grütstrasse 29","name":"Adliswil Dietlimoos / Grütstrasse","ort":"Adliswil","plz":"8134","www":"http://www.mobility.ch"}}
,{"type":"Feature","geometry":{"type":"Point","coordinates":[2682898.92404113,1251652.84921686]},"properties":{"adresse":"Affolternstrasse 98","name":"Zürich Oerlikon / Affolternstrasse","ort":"Zürich","plz":"8050","www":"http://www.mobility.ch"}}
,{"type":"Feature","geometry":{"type":"Point","coordinates":[2679629.88829434,1246953.86683073]},"properties":{"adresse":"Rossackerstrasse 15","name":"Zürich Triemli / Rossackerstrasse","ort":"Zürich","plz":"8047","www":"http://www.mobility.ch"}}
,{"type":"Feature","geometry":{"type":"Point","coordinates":[2687833.90571273,1250678.82827289]},"properties":{"adresse":"Neugutstrasse 83","name":"Dübendorf Micasa","ort":"Dübendorf","plz":"8600","www":"http://www.mobility.ch"}}
,{"type":"Feature","geometry":{"type":"Point","coordinates":[2684259.90230279,1247830.83223231]},"properties":{"adresse":"Moussonstrasse 2","name":"Zürich Moussonstrasse / Gloriastrasse","ort":"Zürich","plz":"8044","www":"http://www.mobility.ch"}}
,{"type":"Feature","geometry":{"type":"Point","coordinates":[2687770.9122946,1251079.82695532]},"properties":{"adresse":"Zwickystrasse 30","name":"Wallisellen Neugut - Zwicky-Areal","ort":"Wallisellen","plz":"8304","www":"http://www.mobility.ch"}}
,{"type":"Feature","geometry":{"type":"Point","coordinates":[2684178.9015086,1248548.83364624]},"properties":{"adresse":"Toblerstrasse 19","name":"Zürich Spyriplatz / Toblerstrasse","ort":"Zürich","plz":"8044","www":"http://www.mobility.ch"}}
,{"type":"Feature","geometry":{"type":"Point","coordinates":[2685482.95073948,1254883.82095195]},"properties":{"adresse":"Balz-Zimmermann-Strasse 7","name":"Kloten Balsberg","ort":"Kloten","plz":"8302","www":"http://www.mobility.ch"}}
,{"type":"Feature","geometry":{"type":"Point","coordinates":[2680415.89200369,1246205.85862046]},"properties":{"adresse":"Friesenbergstrasse 234","name":"Zürich Friesenberg / Friesenbergstrasse","ort":"Zürich","plz":"8055","www":"http://www.mobility.ch"}}
,{"type":"Feature","geometry":{"type":"Point","coordinates":[2684093.90255697,1247635.83499595]},"properties":{"adresse":"Freiestrasse ","name":"Zürich Universitätsspital / Freiestrasse","ort":"Zürich","plz":"8032","www":"http://www.mobility.ch"}}
,{"type":"Feature","geometry":{"type":"Point","coordinates":[2684642.93860367,1253369.83161059]},"properties":{"adresse":"Lindbergh-Platz 1","name":"Opfikon-Glattbrugg Lindbergh-Platz","ort":"Opfikon","plz":"8152","www":"http://www.mobility.ch"}}
,{"type":"Feature","geometry":{"type":"Point","coordinates":[2680883.90133257,1247857.85094846]},"properties":{"adresse":"Aemtlerstrasse 164","name":"Zürich Aemtlerstrasse / Friedaustrasse","ort":"Zürich","plz":"8003","www":"http://www.mobility.ch"}}
,{"type":"Feature","geometry":{"type":"Point","coordinates":[2681183.89519153,1247116.84914145]},"properties":{"adresse":"Goldbrunnenstrasse 107-109","name":"Zürich Goldbrunnenplatz","ort":"Zürich","plz":"8055","www":"http://www.mobility.ch"}}
,{"type":"Feature","geometry":{"type":"Point","coordinates":[2683478.89635222,1248238.83460221]},"properties":{"adresse":"Weinbergstrasse 35","name":"Zürich Haldenegg / Weinbergstrasse","ort":"Zürich","plz":"8092","www":"http://www.mobility.ch"}}
,{"type":"Feature","geometry":{"type":"Point","coordinates":[2684789.90288475,1247100.82304736]},"properties":{"adresse":"Rütistrasse 1","name":"Zürich Römerhofplatz","ort":"Zürich","plz":"8032","www":"http://www.mobility.ch"}}
,{"type":"Feature","geometry":{"type":"Point","coordinates":[2683806.89943706,1246174.8352761]},"properties":{"adresse":"Bellerivestrasse 2","name":"Zürich Utoquai /  Bellerivestrasse","ort":"Zürich","plz":"8008","www":"http://www.mobility.ch"}}
,{"type":"Feature","geometry":{"type":"Point","coordinates":[2682990.90593056,1249098.84180172]},"properties":{"adresse":"Kronenstrasse 33","name":"Zürich Kronenstrasse","ort":"Zürich","plz":"8006","www":"http://www.mobility.ch"}}
,{"type":"Feature","geometry":{"type":"Point","coordinates":[2681667.88335727,1243331.84063959]},"properties":{"adresse":"Leimbachstrasse 25","name":"Zürich Leimbach / Sihlbogen","ort":"Zürich","plz":"8041","www":"http://www.mobility.ch"}}
,{"type":"Feature","geometry":{"type":"Point","coordinates":[2682470.91303532,1249669.84771144]},"properties":{"adresse":"Nordstrasse 194","name":"Zürich Wipkingen / Nordstrasse","ort":"Zürich","plz":"8037","www":"http://www.mobility.ch"}}
,{"type":"Feature","geometry":{"type":"Point","coordinates":[2686236.92864734,1251246.82977254]},"properties":{"adresse":"Winterthurerstrasse 661","name":"Zürich Schwamendingen / Winterthurerstrasse","ort":"Zürich","plz":"8051","www":"http://www.mobility.ch"}}
,{"type":"Feature","geometry":{"type":"Point","coordinates":[2684136.90313681,1246368.83399577]},"properties":{"adresse":"Eisengasse 18","name":"Zürich Seefeld / Eisengasse","ort":"Zürich","plz":"8008","www":"http://www.mobility.ch"}}
,{"type":"Feature","geometry":{"type":"Point","coordinates":[2682863.89001804,1246572.83471958]},"properties":{"adresse":"Tödistrasse 9","name":"Zürich Enge / Tödistrasse","ort":"Zürich","plz":"8002","www":"http://www.mobility.ch"}}
,{"type":"Feature","geometry":{"type":"Point","coordinates":[2678501.94578002,1252039.87393769]},"properties":{"adresse":"Rütihofstrasse 24","name":"Zürich Höngg / Rütihofstrasse","ort":"Zürich","plz":"8049","www":"http://www.mobility.ch"}}
,{"type":"Feature","geometry":{"type":"Point","coordinates":[2682474.88976981,1247012.83601552]},"properties":{"adresse":"Gerechtigkeitsgasse 31","name":"Zürich Selnau / Gerechtigkeitsgasse","ort":"Zürich","plz":"8001","www":"http://www.mobility.ch"}}
,{"type":"Feature","geometry":{"type":"Point","coordinates":[2679351.92714568,1249593.85943028]},"properties":{"adresse":"Vulkanplatz ","name":"Zürich Altstetten / Vulkanplatz","ort":"Zürich","plz":"8048","www":"http://www.mobility.ch"}}
,{"type":"Feature","geometry":{"type":"Point","coordinates":[2682314.9755168,1256016.87475135]},"properties":{"adresse":"Glattalstrasse 201","name":"Rümlang Gemeindehaus","ort":"Rümlang","plz":"8153","www":"http://www.mobility.ch"}}
,{"type":"Feature","geometry":{"type":"Point","coordinates":[2684915.89866685,1246390.81959904]},"properties":{"adresse":"Hegibachstrasse 36 ","name":"Zürich Hegibachstrasse / Haltestelle Freiestrasse","ort":"Zürich","plz":"8032","www":"http://www.mobility.ch"}}
,{"type":"Feature","geometry":{"type":"Point","coordinates":[2686092.89321292,1246273.80604791]},"properties":{"adresse":"In der Sommerau 19","name":"Zürich Witikon / In der Sommerau","ort":"Zürich","plz":"8053","www":"http://www.mobility.ch"}}
,{"type":"Feature","geometry":{"type":"Point","coordinates":[2682953.92132296,1251266.84892606]},"properties":{"adresse":"Hofwiesenstr. 267","name":"Zürich Hofwiesenstrasse / Bad Allenmoos","ort":"Zürich","plz":"8050","www":"http://www.mobility.ch"}}
,{"type":"Feature","geometry":{"type":"Point","coordinates":[2683401.92202851,1251695.84708765]},"properties":{"adresse":"Schulstrasse 44","name":"Zürich Oerlikon Bahnhof / Parkhaus Swissôtel","ort":"Zürich","plz":"8050","www":"http://www.mobility.ch"}}
,{"type":"Feature","geometry":{"type":"Point","coordinates":[2676367.94790591,1250410.89370521]},"properties":{"adresse":"Rütistrasse 12/14","name":"Schlieren Rütistrasse","ort":"Schlieren","plz":"8952","www":"http://www.mobility.ch"}}
,{"type":"Feature","geometry":{"type":"Point","coordinates":[2684451.92949485,1252555.83611584]},"properties":{"adresse":"Schärenmoosstrasse 80","name":"Zürich Publisuisse / Schärenmoosstrasse","ort":"Zürich","plz":"8052","www":"http://www.mobility.ch"}}
,{"type":"Feature","geometry":{"type":"Point","coordinates":[2682774.90912257,1249362.84439332]},"properties":{"adresse":"Nordstrasse 110","name":"Zürich Wipkingen / Lettensiedlung / Nordstrasse","ort":"Zürich","plz":"8037","www":"http://www.mobility.ch"}}
,{"type":"Feature","geometry":{"type":"Point","coordinates":[2684598.92693816,1252123.8370284]},"properties":{"adresse":"Hagenholzstrasse 104b","name":"Zürich Riedbach / Hagenholzstrasse","ort":"Zürich","plz":"8050","www":"http://www.mobility.ch"}}
,{"type":"Feature","geometry":{"type":"Point","coordinates":[2681283.88768893,1245728.8503359]},"properties":{"adresse":"Uetlibergstrasse 231","name":"Zürich Uetlihof / Uetlibergstrasse","ort":"Zürich","plz":"8045","www":"http://www.mobility.ch"}}
,{"type":"Feature","geometry":{"type":"Point","coordinates":[2683894.86020373,1242099.84102163]},"properties":{"adresse":"Seestrasse 126","name":"Kilchberg (ZH) Bahnhof","ort":"Kilchberg (ZH)","plz":"8802","www":"http://www.mobility.ch"}}
,{"type":"Feature","geometry":{"type":"Point","coordinates":[2675386.87456694,1245690.8635351]},"properties":{"adresse":"Rebhalde 28","name":"Birmensdorf (ZH) Bahnhof","ort":"Birmensdorf (ZH)","plz":"8903","www":"http://www.mobility.ch"}}
,{"type":"Feature","geometry":{"type":"Point","coordinates":[2682239.88649453,1245999.83997702]},"properties":{"adresse":"Waffenplatzstrasse 39a","name":"Zürich Waffenplatz","ort":"Zürich","plz":"8002","www":"http://www.mobility.ch"}}
,{"type":"Feature","geometry":{"type":"Point","coordinates":[2683564.93212079,1252596.84257516]},"properties":{"adresse":"Bahnhaldenstrasse 11","name":"Zürich Seebach Bahnhof","ort":"Zürich","plz":"8052","www":"http://www.mobility.ch"}}
,{"type":"Feature","geometry":{"type":"Point","coordinates":[2682354.91381761,1249707.84857385]},"properties":{"adresse":"Dammstrasse 54","name":"Zürich Wipkingen Bahnhof","ort":"Zürich","plz":"8037","www":"http://www.mobility.ch"}}
,{"type":"Feature","geometry":{"type":"Point","coordinates":[2684904.88476413,1244829.81319306]},"properties":{"adresse":"Bellerivestrasse 261","name":"Zürich Tiefenbrunnen Bahnhof","ort":"Zürich","plz":"8008","www":"http://www.mobility.ch"}}
,{"type":"Feature","geometry":{"type":"Point","coordinates":[2682718.8806815,1244752.83685439]},"properties":{"adresse":"Seestrasse 339","name":"Zürich Wollishofen Bahnhof","ort":"Zürich","plz":"8038","www":"http://www.mobility.ch"}}
,{"type":"Feature","geometry":{"type":"Point","coordinates":[2679592.93592936,1250703.86002638]},"properties":{"adresse":"Limmattalstrasse 247","name":"Zürich Höngg / Wartau VBZ","ort":"Zürich","plz":"8049","www":"http://www.mobility.ch"}}
,{"type":"Feature","geometry":{"type":"Point","coordinates":[2679531.91804773,1248893.85797017]},"properties":{"adresse":"Badenerstrasse 627","name":"Zürich Altstetten VBZ P+R","ort":"Zürich","plz":"8048","www":"http://www.mobility.ch"}}
,{"type":"Feature","geometry":{"type":"Point","coordinates":[2687443.90569681,1250179.8297437]},"properties":{"adresse":"Sagentobelbachstrasse ","name":"Zürich Stettbach Bahnhof","ort":"Zürich","plz":"8051","www":"http://www.mobility.ch"}}
,{"type":"Feature","geometry":{"type":"Point","coordinates":[2682533.87705809,1243610.83641351]},"properties":{"adresse":"Albisstrasse 105","name":"Zürich Wollishofen VBZ","ort":"Zürich","plz":"8038","www":"http://www.mobility.ch"}}
,{"type":"Feature","geometry":{"type":"Point","coordinates":[2678988.89107367,1247545.87015962]},"properties":{"adresse":"Triemlistrasse 11","name":"Zürich Albisrieden VBZ","ort":"Zürich","plz":"8047","www":"http://www.mobility.ch"}}
,{"type":"Feature","geometry":{"type":"Point","coordinates":[2687091.9273083,1251881.82568644]},"properties":{"adresse":"Richtistrasse ","name":"Wallisellen Bahnhof","ort":"Wallisellen","plz":"8304","www":"http://www.mobility.ch"}}
,{"type":"Feature","geometry":{"type":"Point","coordinates":[2684734.94461751,1253969.82895428]},"properties":{"adresse":"Schaffhauserstrasse 83","name":"Opfikon Bahnhof","ort":"Opfikon","plz":"8152","www":"http://www.mobility.ch"}}
,{"type":"Feature","geometry":{"type":"Point","coordinates":[2686317.83844492,1241580.838066]},"properties":{"adresse":"Oberwachtstrasse ","name":"Küsnacht (ZH) Bahnhof","ort":"Küsnacht (ZH)","plz":"8700","www":"http://www.mobility.ch"}}
,{"type":"Feature","geometry":{"type":"Point","coordinates":[2689489.90610528,1250542.83317309]},"properties":{"adresse":"Bettlistrasse 5","name":"Dübendorf Bahnhof","ort":"Dübendorf","plz":"8600","www":"http://www.mobility.ch"}}
,{"type":"Feature","geometry":{"type":"Point","coordinates":[2676077.94820886,1250290.89412308]},"properties":{"adresse":"Güterstrasse 4","name":"Schlieren Bahnhof","ort":"Schlieren","plz":"8952","www":"http://www.mobility.ch"}}
,{"type":"Feature","geometry":{"type":"Point","coordinates":[2682649.90485635,1248834.84242038]},"properties":{"adresse":"Sihlquai 133","name":"Zürich Limmatplatz / Sihlquai","ort":"Zürich","plz":"8005","www":"http://www.mobility.ch"}}
,{"type":"Feature","geometry":{"type":"Point","coordinates":[2689613.94034132,1254867.81043405]},"properties":{"adresse":"Bahnhofstrasse 40","name":"Bassersdorf Bahnhof","ort":"Bassersdorf","plz":"8303","www":"http://www.mobility.ch"}}
,{"type":"Feature","geometry":{"type":"Point","coordinates":[2686346.95854406,1255870.81098968]},"properties":{"adresse":"Breitistrasse 25","name":"Kloten Bahnhof","ort":"Kloten","plz":"8302","www":"http://www.mobility.ch"}}
,{"type":"Feature","geometry":{"type":"Point","coordinates":[2677891.98164417,1254514.91495225]},"properties":{"adresse":"Hardrainstrasse 24","name":"Regensdorf Bahnhof","ort":"Regensdorf","plz":"8105","www":"http://www.mobility.ch"}}
,{"type":"Feature","geometry":{"type":"Point","coordinates":[2692330.90005869,1248844.84092005]},"properties":{"adresse":"Bahnstrasse 3","name":"Schwerzenbach Bahnhof","ort":"Schwerzenbach","plz":"8603","www":"http://www.mobility.ch"}}
,{"type":"Feature","geometry":{"type":"Point","coordinates":[2686475.88393456,1245145.80327149]},"properties":{"adresse":"Rehalpstrasse 90","name":"Zürich Rehalp","ort":"Zürich","plz":"8008","www":"http://www.mobility.ch"}}
,{"type":"Feature","geometry":{"type":"Point","coordinates":[2679958.89698773,1247841.86141421]},"properties":{"adresse":"Letzigraben 120","name":"Zürich Letzigraben","ort":"Zürich","plz":"8047","www":"http://www.mobility.ch"}}
,{"type":"Feature","geometry":{"type":"Point","coordinates":[2683581.90423127,1249159.83870667]},"properties":{"adresse":"Stolzestrasse 30","name":"Zürich Stolzestrasse","ort":"Zürich","plz":"8006","www":"http://www.mobility.ch"}}
,{"type":"Feature","geometry":{"type":"Point","coordinates":[2682619.92548042,1251711.85068144]},"properties":{"adresse":"Affolternstrasse 140","name":"Zürich Affolternstrasse","ort":"Zürich","plz":"8050","www":"http://www.mobility.ch"}}
,{"type":"Feature","geometry":{"type":"Point","coordinates":[2682069.91750707,1250053.85148836]},"properties":{"adresse":"Lehenstrasse 17/11","name":"Zürich Lehenstrasse","ort":"Zürich","plz":"8037","www":"http://www.mobility.ch"}}
,{"type":"Feature","geometry":{"type":"Point","coordinates":[2681556.89561216,1247391.84482712]},"properties":{"adresse":"Zentralstrasse 63","name":"Zürich Wiedikon / Zentralstrasse","ort":"Zürich","plz":"8003","www":"http://www.mobility.ch"}}
,{"type":"Feature","geometry":{"type":"Point","coordinates":[2681949.89399644,1247375.84080989]},"properties":{"adresse":"Zweier-/Baumgartnerstrasse ","name":"Zürich Wiedikon Bahnhof","ort":"Zürich","plz":"8004","www":"http://www.mobility.ch"}}
,{"type":"Feature","geometry":{"type":"Point","coordinates":[2683341.89668454,1248217.83528469]},"properties":{"adresse":"Neumühlequai 30","name":"Zürich Stampfenbachplatz / Neumühlequai","ort":"Zürich","plz":"8006","www":"http://www.mobility.ch"}}
,{"type":"Feature","geometry":{"type":"Point","coordinates":[2685575.89318635,1246131.80773961]},"properties":{"adresse":"Hirslanderstrasse 47","name":"Zürich Hirslanden / Kapfstrasse","ort":"Zürich","plz":"8032","www":"http://www.mobility.ch"}}
,{"type":"Feature","geometry":{"type":"Point","coordinates":[2679040.9275493,1249475.85997971]},"properties":{"adresse":"Bachmattweg 11","name":"Zürich Altstetten / Bachmattweg","ort":"Zürich","plz":"8048","www":"http://www.mobility.ch"}}
,{"type":"Feature","geometry":{"type":"Point","coordinates":[2689237.88234056,1246604.80248183]},"properties":{"adresse":"Zürichstrasse 80","name":"Pfaffhausen Zürichstrasse","ort":"Pfaffhausen","plz":"8118","www":"http://www.mobility.ch"}}
,{"type":"Feature","geometry":{"type":"Point","coordinates":[2682736.93649278,1253106.84932428]},"properties":{"adresse":"Schwandenholzstrasse 14","name":"Zürich Seebach / Schwandenackerstrasse","ort":"Zürich","plz":"8052","www":"http://www.mobility.ch"}}
,{"type":"Feature","geometry":{"type":"Point","coordinates":[2685502.88523768,1244875.80676527]},"properties":{"adresse":"Bleulerstrasse 60","name":"Zürich EPI - Klinik","ort":"Zürich","plz":"8008","www":"http://www.mobility.ch"}}
,{"type":"Feature","geometry":{"type":"Point","coordinates":[2682410.92832431,1252194.85320319]},"properties":{"adresse":"Kügeliloostrasse 97","name":"Zürich Oerlikon / Neunbrunnenstrasse","ort":"Zürich","plz":"8046","www":"http://www.mobility.ch"}}
,{"type":"Feature","geometry":{"type":"Point","coordinates":[2674672.94956619,1249699.89468553]},"properties":{"adresse":"Spitalstrasse 31","name":"Schlieren Spital Limmattal","ort":"Schlieren","plz":"8952","www":"http://www.mobility.ch"}}
,{"type":"Feature","geometry":{"type":"Point","coordinates":[2681183.92164782,1250028.85578504]},"properties":{"adresse":"Limmattalstrasse 5/7","name":"Zürich Wipkingen / Limmattalstrasse","ort":"Zürich","plz":"8049","www":"http://www.mobility.ch"}}
,{"type":"Feature","geometry":{"type":"Point","coordinates":[2684592.88971171,1245250.82008877]},"properties":{"adresse":"Nebelbachstrasse 10","name":"Zürich Seefeld / Nebelbachstrasse","ort":"Zürich","plz":"8008","www":"http://www.mobility.ch"}}
,{"type":"Feature","geometry":{"type":"Point","coordinates":[2675343.87060823,1245310.86328839]},"properties":{"adresse":"Lettenmattstrasse 8","name":"Birmensdorf (ZH) Zentrum","ort":"Birmensdorf (ZH)","plz":"8903","www":"http://www.mobility.ch"}}
,{"type":"Feature","geometry":{"type":"Point","coordinates":[2677840.83310818,1242290.80643684]},"properties":{"adresse":"Stationsstrasse 32","name":"Bonstetten Bahnhof Bonstetten-Wettswil","ort":"Bonstetten","plz":"8906","www":"http://www.mobility.ch"}}
,{"type":"Feature","geometry":{"type":"Point","coordinates":[2684595.92700881,1252147.83693152]},"properties":{"adresse":"Hagenholzstrasse 83","name":"Zürich Riedbach / Holcim","ort":"Zürich","plz":"8050","www":"http://www.mobility.ch"}}
,{"type":"Feature","geometry":{"type":"Point","coordinates":[2682364.87355381,1242943.83650755]},"properties":{"adresse":"Dangelstrasse 25","name":"Zürich Wollishofen / Dangelstrasse","ort":"Zürich","plz":"8038","www":"http://www.mobility.ch"}}
,{"type":"Feature","geometry":{"type":"Point","coordinates":[2682033.89728178,1247786.84115339]},"properties":{"adresse":"Langstrasse 35","name":"Zürich Helvetiaplatz / Langstrasse","ort":"Zürich","plz":"8004","www":"http://www.mobility.ch"}}
,{"type":"Feature","geometry":{"type":"Point","coordinates":[2682915.90722149,1249210.8428053]},"properties":{"adresse":"Schindlerstrasse 4","name":"Zürich Kornhausbrücke / Schindlerstrasse","ort":"Zürich","plz":"8006","www":"http://www.mobility.ch"}}
,{"type":"Feature","geometry":{"type":"Point","coordinates":[2681065.93787689,1253173.86376019]},"properties":{"adresse":"Wolfswinkel 18","name":"Zürich Unter-Affoltern / Wolfswinkel","ort":"Zürich","plz":"8046","www":"http://www.mobility.ch"}}
,{"type":"Feature","geometry":{"type":"Point","coordinates":[2682337.88136193,1244332.83915935]},"properties":{"adresse":"Tannenrauchstrasse 84","name":"Zürich Wollishofen / Tannenrauchstrasse","ort":"Zürich","plz":"8038","www":"http://www.mobility.ch"}}
,{"type":"Feature","geometry":{"type":"Point","coordinates":[2684328.90177727,1248252.83104523]},"properties":{"adresse":"Hinterbergstrasse 11","name":"Zürich Zürichberg / Hinterbergstrasse","ort":"Zürich","plz":"8044","www":"http://www.mobility.ch"}}
,{"type":"Feature","geometry":{"type":"Point","coordinates":[2680382.90077009,1247488.85674267]},"properties":{"adresse":"Gutstrasse 151","name":"Zürich Im Gut / Gutstrasse","ort":"Zürich","plz":"8055","www":"http://www.mobility.ch"}}
,{"type":"Feature","geometry":{"type":"Point","coordinates":[2685059.92328337,1251144.83608187]},"properties":{"adresse":"Luegislandstrasse 25-33","name":"Zürich Schwamendingen / Diener Areal","ort":"Zürich","plz":"8051","www":"http://www.mobility.ch"}}
,{"type":"Feature","geometry":{"type":"Point","coordinates":[2683465.90910987,1249788.84139272]},"properties":{"adresse":"Langmauerstrasse 113","name":"Zürich Langmauerstrasse","ort":"Zürich","plz":"8006","www":"http://www.mobility.ch"}}
,{"type":"Feature","geometry":{"type":"Point","coordinates":[2680212.94076632,1253206.87406117]},"properties":{"adresse":"Weidmannstrasse 12","name":"Zürich Affoltern / Klee","ort":"Zürich","plz":"8046","www":"http://www.mobility.ch"}}
,{"type":"Feature","geometry":{"type":"Point","coordinates":[2681651.89497154,1247350.84392021]},"properties":{"adresse":"Bremgartnerstrasse 18","name":"Zürich Wiedikon / Bremgartnerstrasse","ort":"Zürich","plz":"8003","www":"http://www.mobility.ch"}}
,{"type":"Feature","geometry":{"type":"Point","coordinates":[2683648.9226553,1251698.84551585]},"properties":{"adresse":"Schaffhauserstrasse 362","name":"Zürich Oerlikon / Schaffhauserstrasse","ort":"Zürich","plz":"8050","www":"http://www.mobility.ch"}}
,{"type":"Feature","geometry":{"type":"Point","coordinates":[2684569.90276531,1247298.82685822]},"properties":{"adresse":"Fehrenstrasse 15","name":"Zürich Kantonales Labor Zürich / Fehrenstrasse","ort":"Zürich","plz":"8032","www":"http://www.mobility.ch"}}
,{"type":"Feature","geometry":{"type":"Point","coordinates":[2688654.90279773,1250583.83147001]},"properties":{"adresse":"Überlandstrasse 138","name":"Dübendorf Givaudan / Überlandstrasse","ort":"Dübendorf","plz":"8600","www":"http://www.mobility.ch"}}
,{"type":"Feature","geometry":{"type":"Point","coordinates":[2682134.90535969,1248672.8445622]},"properties":{"adresse":"Neugasse 81","name":"Zürich Neugasse","ort":"Zürich","plz":"8005","www":"http://www.mobility.ch"}}
,{"type":"Feature","geometry":{"type":"Point","coordinates":[2682264.91497825,1249811.84950948]},"properties":{"adresse":"Nordstrasse 234","name":"Zürich Wipkingen Bahnhof / Nordstrasse","ort":"Zürich","plz":"8037","www":"http://www.mobility.ch"}}
,{"type":"Feature","geometry":{"type":"Point","coordinates":[2679449.90927204,1248438.86037573]},"properties":{"adresse":"Rautistrasse 58","name":"Zürich Altstetten / Flurstrasse","ort":"Zürich","plz":"8047","www":"http://www.mobility.ch"}}
,{"type":"Feature","geometry":{"type":"Point","coordinates":[2684556.92205777,1251222.83914868]},"properties":{"adresse":"Herbstweg 29","name":"Zürich Oerlikon / Herbstweg","ort":"Zürich","plz":"8050","www":"http://www.mobility.ch"}}
,{"type":"Feature","geometry":{"type":"Point","coordinates":[2684572.92895549,1252534.83529301]},"properties":{"adresse":"Schärenmoosstrasse 115","name":"Zürich Fernsehstudio / Schärenmoosstrasse","ort":"Zürich","plz":"8052","www":"http://www.mobility.ch"}}
,{"type":"Feature","geometry":{"type":"Point","coordinates":[2683031.90970711,1249566.8436869]},"properties":{"adresse":"Schaffhauserplatz 3","name":"Zürich Schaffhauserplatz","ort":"Zürich","plz":"8006","www":"http://www.mobility.ch"}}
,{"type":"Feature","geometry":{"type":"Point","coordinates":[2684928.92643763,1251672.83700163]},"properties":{"adresse":"Saatlenstrasse 240","name":"Zürich Saatlenstrasse / Reformierte Kirche Saatlen","ort":"Zürich","plz":"8050","www":"http://www.mobility.ch"}}
,{"type":"Feature","geometry":{"type":"Point","coordinates":[2683104.92353196,1251746.84858209]},"properties":{"adresse":"Erika-Mann-Weg ","name":"Zürich Oerlikon Bahnhof / Erika-Mann-Weg","ort":"Zürich","plz":"8050","www":"http://www.mobility.ch"}}
,{"type":"Feature","geometry":{"type":"Point","coordinates":[2684371.93059353,1252632.83642098]},"properties":{"adresse":"Schärenmoosstrasse 76","name":"Zürich Glattpark / Schärenmosstrasse","ort":"Zürich","plz":"8052","www":"http://www.mobility.ch"}}
,{"type":"Feature","geometry":{"type":"Point","coordinates":[2680149.93934973,1252784.87290915]},"properties":{"adresse":"Furttalstrasse 33","name":"Zürich Waidmatt Furttalstrasse","ort":"Zürich","plz":"8046","www":"http://www.mobility.ch"}}
,{"type":"Feature","geometry":{"type":"Point","coordinates":[2683944.90146044,1247422.83489366]},"properties":{"adresse":"Rämistrasse 59","name":"Zürich Uni Asien-Orient-Institut / Kantonsschulstrasse","ort":"Zürich","plz":"8001","www":"http://www.mobility.ch"}}
,{"type":"Feature","geometry":{"type":"Point","coordinates":[2681399.88947901,1246274.8483117]},"properties":{"adresse":"Grubenstrasse 12","name":"Zürich Louis-Braille-Strasse / Grubenstrasse","ort":"Zürich","plz":"8045","www":"http://www.mobility.ch"}}
,{"type":"Feature","geometry":{"type":"Point","coordinates":[2683517.9103837,1250018.84168211]},"properties":{"adresse":"Winterthurerstrasse 161","name":"Zürich Irchel Tramdepot VBZ","ort":"Zürich","plz":"8057","www":"http://www.mobility.ch"}}
,{"type":"Feature","geometry":{"type":"Point","coordinates":[2682955.90663836,1249162.84232991]},"properties":{"adresse":"Markusstrasse 12","name":"Zürich Kornhausbrücke / Markusstrasse","ort":"Zürich","plz":"8006","www":"http://www.mobility.ch"}}
,{"type":"Feature","geometry":{"type":"Point","coordinates":[2681269.89932621,1247779.84711043]},"properties":{"adresse":"Zentralstrasse 156","name":"Zürich Zentralstrasse / Martastrasse","ort":"Zürich","plz":"8003","www":"http://www.mobility.ch"}}
,{"type":"Feature","geometry":{"type":"Point","coordinates":[2681291.89656164,1247381.84757187]},"properties":{"adresse":"Aemtlerstrasse 39","name":"Zürich Zwinglihaus / Aemtlerstrasse","ort":"Zürich","plz":"8003","www":"http://www.mobility.ch"}}
,{"type":"Feature","geometry":{"type":"Point","coordinates":[2676279.96723966,1251913.90177334]},"properties":{"adresse":"Zürcherstrasse 42","name":"Unterengstringen Dreispitz / Zürcherstrasse","ort":"Unterengstringen","plz":"8103","www":"http://www.mobility.ch"}}
,{"type":"Feature","geometry":{"type":"Point","coordinates":[2682124.90840604,1249007.84632869]},"properties":{"adresse":"Heinrichstrasse 147","name":"Zürich Röntgenplatz","ort":"Zürich","plz":"8005","www":"http://www.mobility.ch"}}
,{"type":"Feature","geometry":{"type":"Point","coordinates":[2684545.9029879,1247117.82727054]},"properties":{"adresse":"Asylstrasse 15","name":"Zürich Hottingerplatz","ort":"Zürich","plz":"8032","www":"http://www.mobility.ch"}}
,{"type":"Feature","geometry":{"type":"Point","coordinates":[2684013.90316462,1246500.83494171]},"properties":{"adresse":"Kreuzstrasse 41","name":"Zürich Kreuzstrasse / Klarastrasse","ort":"Zürich","plz":"8008","www":"http://www.mobility.ch"}}
,{"type":"Feature","geometry":{"type":"Point","coordinates":[2681419.88063302,1242737.83908824]},"properties":{"adresse":"Leimbachstrasse 107","name":"Zürich Leimbach Post","ort":"Zürich","plz":"8041","www":"http://www.mobility.ch"}}
,{"type":"Feature","geometry":{"type":"Point","coordinates":[2680228.92834309,1250224.85811936]},"properties":{"adresse":"Tobeleggweg 19","name":"Zürich Tobeleggweg","ort":"Zürich","plz":"8049","www":"http://www.mobility.ch"}}
,{"type":"Feature","geometry":{"type":"Point","coordinates":[2686609.91741575,1250556.83029193]},"properties":{"adresse":"Dübendorfstrasse 230","name":"Zürich Probstei","ort":"Zürich","plz":"8051","www":"http://www.mobility.ch"}}
,{"type":"Feature","geometry":{"type":"Point","coordinates":[2681044.89965756,1247700.84956275]},"properties":{"adresse":"Aemtlerstrasse 114","name":"Zürich Friedhof Sihlfeld / Ecke Fritschistrasse","ort":"Zürich","plz":"8003","www":"http://www.mobility.ch"}}
,{"type":"Feature","geometry":{"type":"Point","coordinates":[2686404.9320473,1252198.8257622]},"properties":{"adresse":"Alte Winterthurerstrasse 1","name":"Wallisellen Alte Winterthurerstrasse","ort":"Wallisellen","plz":"8304","www":"http://www.mobility.ch"}}
,{"type":"Feature","geometry":{"type":"Point","coordinates":[2675228.99270046,1256323.94544234]},"properties":{"adresse":"Bahnhofstrasse 24","name":"Buchs (ZH) Bahnhof Buchs-Dällikon","ort":"Buchs (ZH)","plz":"8107","www":"http://www.mobility.ch"}}
,{"type":"Feature","geometry":{"type":"Point","coordinates":[2678585.92416762,1249177.86241473]},"properties":{"adresse":"Dachslernstrasse 35","name":"Zürich Altstetten / Hallenbad","ort":"Zürich","plz":"8048","www":"http://www.mobility.ch"}}
,{"type":"Feature","geometry":{"type":"Point","coordinates":[2683698.89806797,1248420.83472388]},"properties":{"adresse":"Culmannstrasse 27","name":"Zürich Haldenbach","ort":"Zürich","plz":"8006","www":"http://www.mobility.ch"}}
,{"type":"Feature","geometry":{"type":"Point","coordinates":[2682797.91063358,1249540.84516875]},"properties":{"adresse":"Rotbuchstrasse 22","name":"Zürich Rotbuchstrasse","ort":"Zürich","plz":"8037","www":"http://www.mobility.ch"}}
,{"type":"Feature","geometry":{"type":"Point","coordinates":[2683811.90097383,1246812.83480263]},"properties":{"adresse":"Schanzengasse 11","name":"Zürich Stadelhofen Bahnhof","ort":"Zürich","plz":"8001","www":"http://www.mobility.ch"}}
,{"type":"Feature","geometry":{"type":"Point","coordinates":[2680317.89596897,1246738.85870791]},"properties":{"adresse":"Schweigmatt 54","name":"Zürich Friesenberg / Schweigmatt","ort":"Zürich","plz":"8055","www":"http://www.mobility.ch"}}
,{"type":"Feature","geometry":{"type":"Point","coordinates":[2682703.91425138,1250017.84713738]},"properties":{"adresse":"Wachterweg 25","name":"Zürich Bucheggplatz / Wachterweg","ort":"Zürich","plz":"8057","www":"http://www.mobility.ch"}}
,{"type":"Feature","geometry":{"type":"Point","coordinates":[2683550.92842755,1252279.84387938]},"properties":{"adresse":"Friesstrasse 41","name":"Zürich Seebach / Friesstrasse","ort":"Zürich","plz":"8050","www":"http://www.mobility.ch"}}
,{"type":"Feature","geometry":{"type":"Point","coordinates":[2683908.91794794,1251034.84222059]},"properties":{"adresse":"Friedheimstrasse 17","name":"Zürich Berninaplatz / Friedheimstrasse","ort":"Zürich","plz":"8057","www":"http://www.mobility.ch"}}
,{"type":"Feature","geometry":{"type":"Point","coordinates":[2680812.92757718,1250475.85706697]},"properties":{"adresse":"Appenzellerstrasse 1","name":"Zürich Höngg / Im Wingert","ort":"Zürich","plz":"8049","www":"http://www.mobility.ch"}}
,{"type":"Feature","geometry":{"type":"Point","coordinates":[2681305.87109496,1242218.83457553]},"properties":{"adresse":"Klebestrasse 7","name":"Zürich Mittelleimbach Zentrum","ort":"Zürich","plz":"8041","www":"http://www.mobility.ch"}}
,{"type":"Feature","geometry":{"type":"Point","coordinates":[2689713.94068834,1255387.80180753]},"properties":{"adresse":"Klotenerstrasse 1","name":"Bassersdorf Zentrum / Bibliothek","ort":"Bassersdorf","plz":"8303","www":"http://www.mobility.ch"}}
,{"type":"Feature","geometry":{"type":"Point","coordinates":[2678076.91929858,1248948.86814742]},"properties":{"adresse":"Rautistrasse 345","name":"Zürich Altstetten / Rautistrasse","ort":"Zürich","plz":"8048","www":"http://www.mobility.ch"}}
,{"type":"Feature","geometry":{"type":"Point","coordinates":[2681365.92091352,1250051.85540121]},"properties":{"adresse":"Trottenstrasse 100","name":"Zürich Wipkingen / Trottenstrasse","ort":"Zürich","plz":"8037","www":"http://www.mobility.ch"}}
,{"type":"Feature","geometry":{"type":"Point","coordinates":[2676169.9440788,1250022.89219104]},"properties":{"adresse":"Brunngasse 6","name":"Schlieren Zentrum / Brunngasse","ort":"Schlieren","plz":"8952","www":"http://www.mobility.ch"}}
,{"type":"Feature","geometry":{"type":"Point","coordinates":[2692917.85378298,1244005.80741732]},"properties":{"adresse":"Zürichstrasse 8","name":"Maur Dorf","ort":"Maur","plz":"8124","www":"http://www.mobility.ch"}}
,{"type":"Feature","geometry":{"type":"Point","coordinates":[2678922.90734375,1248340.86465722]},"properties":{"adresse":"Altstetterstrasse 237","name":"Zürich Altstetten / Schulhaus Untermoos","ort":"Zürich","plz":"8048","www":"http://www.mobility.ch"}}
,{"type":"Feature","geometry":{"type":"Point","coordinates":[2682499.91006939,1249351.84592216]},"properties":{"adresse":"Imfeldstrasse 60","name":"Zürich Wipkingen / Imfeldstrasse","ort":"Zürich","plz":"8037","www":"http://www.mobility.ch"}}
,{"type":"Feature","geometry":{"type":"Point","coordinates":[2678873.93656484,1250910.86884001]},"properties":{"adresse":"Limmattalstrasse 371","name":"Zürich Frankental / Pflegezentrum Bombach","ort":"Zürich","plz":"8049","www":"http://www.mobility.ch"}}
,{"type":"Feature","geometry":{"type":"Point","coordinates":[2682234.87785472,1243207.83729933]},"properties":{"adresse":"Paradiesstrasse 45","name":"Zürich Wollishofen / Pflegezentrum Entlisberg","ort":"Zürich","plz":"8038","www":"http://www.mobility.ch"}}
,{"type":"Feature","geometry":{"type":"Point","coordinates":[2683747.90758908,1249761.83942694]},"properties":{"adresse":"Langensteinenstrasse 65","name":"Zürich Oberstrass / Pflegezentrum Irchelpark","ort":"Zürich","plz":"8057","www":"http://www.mobility.ch"}}
,{"type":"Feature","geometry":{"type":"Point","coordinates":[2688616.90095061,1250136.83397677]},"properties":{"adresse":"Neuweg 12","name":"Dübendorf Neuweg","ort":"Dübendorf","plz":"8600","www":"http://www.mobility.ch"}}
,{"type":"Feature","geometry":{"type":"Point","coordinates":[2682118.9143198,1249663.84970958]},"properties":{"adresse":"Leutholdstrasse 17","name":"Zürich Wipkingen / Leutholdstrasse","ort":"Zürich","plz":"8037","www":"http://www.mobility.ch"}}
,{"type":"Feature","geometry":{"type":"Point","coordinates":[2684062.92689611,1252254.84015594]},"properties":{"adresse":"Thurgauerstrasse 56","name":"Zürich Oerlikon / Thurgauerstrasse","ort":"Zürich","plz":"8050","www":"http://www.mobility.ch"}}
,{"type":"Feature","geometry":{"type":"Point","coordinates":[2681641.8923769,1246959.84469891]},"properties":{"adresse":"Steinstr./Schlossgasse ","name":"Zürich Schmiede Wiedikon","ort":"Zürich","plz":"8003","www":"http://www.mobility.ch"}}
,{"type":"Feature","geometry":{"type":"Point","coordinates":[2683781.91617605,1250887.84248702]},"properties":{"adresse":"Berninaplatz 2","name":"Zürich Berninaplatz","ort":"Zürich","plz":"8057","www":"http://www.mobility.ch"}}
,{"type":"Feature","geometry":{"type":"Point","coordinates":[2681248.89803304,1247575.84767915]},"properties":{"adresse":"Idaplatz 3","name":"Zürich Idaplatz","ort":"Zürich","plz":"8003","www":"http://www.mobility.ch"}}
,{"type":"Feature","geometry":{"type":"Point","coordinates":[2681947.91121629,1249245.84856289]},"properties":{"adresse":"Heinrichstrasse 240","name":"Zürich KV Heinrichstrasse","ort":"Zürich","plz":"8005","www":"http://www.mobility.ch"}}
,{"type":"Feature","geometry":{"type":"Point","coordinates":[2681898.89634294,1247652.84150807]},"properties":{"adresse":"Badenerstrasse 134","name":"Zürich Wengihof / Badenerstrasse","ort":"Zürich","plz":"8004","www":"http://www.mobility.ch"}}
,{"type":"Feature","geometry":{"type":"Point","coordinates":[2681315.89690053,1247445.84721424]},"properties":{"adresse":"Idastrasse 19","name":"Zürich Idastrasse","ort":"Zürich","plz":"8003","www":"http://www.mobility.ch"}}
,{"type":"Feature","geometry":{"type":"Point","coordinates":[2683263.91384816,1250359.84433124]},"properties":{"adresse":"Schaffhauserstrasse 151","name":"Zürich Milchbuck / Schaffhauserstrasse","ort":"Zürich","plz":"8057","www":"http://www.mobility.ch"}}
,{"type":"Feature","geometry":{"type":"Point","coordinates":[2683138.91244554,1250057.84433158]},"properties":{"adresse":"Schaffhauserstrasse 119","name":"Zürich Milchbuck / Buchmattweg","ort":"Zürich","plz":"8057","www":"http://www.mobility.ch"}}
,{"type":"Feature","geometry":{"type":"Point","coordinates":[2684453.90344683,1246681.82883164]},"properties":{"adresse":"Minervastrasse 65","name":"Zürich Kreuzplatz / Kirche St. Anton","ort":"Zürich","plz":"8032","www":"http://www.mobility.ch"}}
,{"type":"Feature","geometry":{"type":"Point","coordinates":[2679069.91826907,1248886.86070599]},"properties":{"adresse":"Altstetterstrasse 175","name":"Zürich Altstetten Post / Lindenplatz","ort":"Zürich","plz":"8048","www":"http://www.mobility.ch"}}
,{"type":"Feature","geometry":{"type":"Point","coordinates":[2680966.89217904,1246545.85236176]},"properties":{"adresse":"Sieberstrasse 12","name":"Zürich Friesenberg / Sieberstrasse","ort":"Zürich","plz":"8055","www":"http://www.mobility.ch"}}
,{"type":"Feature","geometry":{"type":"Point","coordinates":[2682174.89767435,1247864.84049998]},"properties":{"adresse":"Molkenstrasse 5","name":"Zürich Helvetiaplatz","ort":"Zürich","plz":"8004","www":"http://www.mobility.ch"}}
,{"type":"Feature","geometry":{"type":"Point","coordinates":[2684097.90122162,1246215.83329163]},"properties":{"adresse":"Florastrasse 38","name":"Zürich Florastrasse","ort":"Zürich","plz":"8008","www":"http://www.mobility.ch"}}
,{"type":"Feature","geometry":{"type":"Point","coordinates":[2680586.92432973,1249983.85707486]},"properties":{"adresse":"Am Wasser 55","name":"Zürich Am Wasser","ort":"Zürich","plz":"8049","www":"http://www.mobility.ch"}}
,{"type":"Feature","geometry":{"type":"Point","coordinates":[2683037.9153207,1250419.84601307]},"properties":{"adresse":"Wehntalerstrasse 36","name":"Zürich Buchegg / Wehntalerstrasse","ort":"Zürich","plz":"8057","www":"http://www.mobility.ch"}}
,{"type":"Feature","geometry":{"type":"Point","coordinates":[2685449.92307975,1250952.83330329]},"properties":{"adresse":"Winterthurerstrasse 507","name":"Zürich Schwamendingen / Hirschen","ort":"Zürich","plz":"8051","www":"http://www.mobility.ch"}}
,{"type":"Feature","geometry":{"type":"Point","coordinates":[2682632.91112624,1249525.84604321]},"properties":{"adresse":"Nordstrasse 152","name":"Zürich Letten / Nordstrasse","ort":"Zürich","plz":"8037","www":"http://www.mobility.ch"}}
,{"type":"Feature","geometry":{"type":"Point","coordinates":[2681007.90259254,1248079.84983852]},"properties":{"adresse":"Badenerstrasse 338","name":"Zürich Albisriederplatz / Tiefgarage","ort":"Zürich","plz":"8004","www":"http://www.mobility.ch"}}
,{"type":"Feature","geometry":{"type":"Point","coordinates":[2681869.89278825,1247150.84202215]},"properties":{"adresse":"Weststrasse 41","name":"Zürich Weststrasse","ort":"Zürich","plz":"8003","www":"http://www.mobility.ch"}}
,{"type":"Feature","geometry":{"type":"Point","coordinates":[2681213.90613703,1248506.85031365]},"properties":{"adresse":"Hardplatz 15","name":"Zürich Hardplatz","ort":"Zürich","plz":"8004","www":"http://www.mobility.ch"}}
,{"type":"Feature","geometry":{"type":"Point","coordinates":[2681214.90204414,1248075.84833798]},"properties":{"adresse":"Zypressenstrasse 69","name":"Zürich Zypressen","ort":"Zürich","plz":"8004","www":"http://www.mobility.ch"}}
,{"type":"Feature","geometry":{"type":"Point","coordinates":[2682056.89601027,1247658.84040408]},"properties":{"adresse":"Ankerstrasse 53","name":"Zürich Ankerstrasse / BGZ","ort":"Zürich","plz":"8004","www":"http://www.mobility.ch"}}
,{"type":"Feature","geometry":{"type":"Point","coordinates":[2684566.90137776,1246476.82630504]},"properties":{"adresse":"Minervastrasse 120","name":"Zürich Minervastrasse","ort":"Zürich","plz":"8032","www":"http://www.mobility.ch"}}
,{"type":"Feature","geometry":{"type":"Point","coordinates":[2683838.89910194,1248617.83481999]},"properties":{"adresse":"Huttenstrasse 5","name":"Zürich Rigiplatz / Huttenstrasse","ort":"Zürich","plz":"8006","www":"http://www.mobility.ch"}}
,{"type":"Feature","geometry":{"type":"Point","coordinates":[2682690.90109944,1248433.84013855]},"properties":{"adresse":"Klingenstrasse 24","name":"Zürich Klingenstrasse / Josefstrasse","ort":"Zürich","plz":"8005","www":"http://www.mobility.ch"}}
,{"type":"Feature","geometry":{"type":"Point","coordinates":[2689040.92489216,1252738.82490117]},"properties":{"adresse":"Bahnhofstrasse 30","name":"Dietlikon Bahnhof","ort":"Dietlikon","plz":"8305","www":"http://www.mobility.ch"}}
,{"type":"Feature","geometry":{"type":"Point","coordinates":[2681821.90188549,1248216.84463541]},"properties":{"adresse":"Hohlstrasse 118","name":"Zürich Hohlstrasse / Pflanzschulstrasse","ort":"Zürich","plz":"8004","www":"http://www.mobility.ch"}}
,{"type":"Feature","geometry":{"type":"Point","coordinates":[2681299.91367875,1249323.85342933]},"properties":{"adresse":"Pfingstweidstrasse 30","name":"Zürich Technopark","ort":"Zürich","plz":"8005","www":"http://www.mobility.ch"}}
,{"type":"Feature","geometry":{"type":"Point","coordinates":[2682285.88279782,1245047.84092159]},"properties":{"adresse":"Mutschellenstrasse 59-61","name":"Zürich Mutschellenstrasse","ort":"Zürich","plz":"8038","www":"http://www.mobility.ch"}}
,{"type":"Feature","geometry":{"type":"Point","coordinates":[2682849.87095516,1243072.83397173]},"properties":{"adresse":"Nidelbadstrasse 79","name":"Zürich Neubühl","ort":"Zürich","plz":"8038","www":"http://www.mobility.ch"}}
,{"type":"Feature","geometry":{"type":"Point","coordinates":[2680742.90366486,1248123.85193995]},"properties":{"adresse":"Bramsstrasse 30a","name":"Zürich Albisriederplatz / Brahmshof","ort":"Zürich","plz":"8003","www":"http://www.mobility.ch"}}
,{"type":"Feature","geometry":{"type":"Point","coordinates":[2683383.89885967,1248477.8363689]},"properties":{"adresse":"Sumatrastrasse 31","name":"Zürich Sonnegg / Sumatrastrasse","ort":"Zürich","plz":"8006","www":"http://www.mobility.ch"}}
,{"type":"Feature","geometry":{"type":"Point","coordinates":[2684431.8970056,1245852.82657753]},"properties":{"adresse":"Höschgasse 78","name":"Zürich Höschgasse","ort":"Zürich","plz":"8008","www":"http://www.mobility.ch"}}
,{"type":"Feature","geometry":{"type":"Point","coordinates":[2681476.89794607,1247692.84513028]},"properties":{"adresse":"Meinrad-Lienert-Strasse 25","name":"Zürich Lochergut / Meinrad Lienertstr.","ort":"Zürich","plz":"8003","www":"http://www.mobility.ch"}}
,{"type":"Feature","geometry":{"type":"Point","coordinates":[2684992.89792063,1246349.81807532]},"properties":{"adresse":"Freiestrasse 178-168","name":"Zürich Freiestrasse","ort":"Zürich","plz":"8032","www":"http://www.mobility.ch"}}
,{"type":"Feature","geometry":{"type":"Point","coordinates":[2686209.96336946,1256253.82031237]},"properties":{"adresse":"Schaffhauserstrasse 122","name":"Kloten Migros Markt","ort":"Kloten","plz":"8302","www":"http://www.mobility.ch"}}
,{"type":"Feature","geometry":{"type":"Point","coordinates":[2682631.88629469,1246187.83561448]},"properties":{"adresse":"Lavaterstrasse 60","name":"Zürich Museum Rietberg / Lavaterstrasse","ort":"Zürich","plz":"8002","www":"http://www.mobility.ch"}}
,{"type":"Feature","geometry":{"type":"Point","coordinates":[2686648.89035591,1246017.80359223]},"properties":{"adresse":"Witikonerstrasse 293","name":"Zürich Witikon Migros Markt","ort":"Zürich","plz":"8053","www":"http://www.mobility.ch"}}
,{"type":"Feature","geometry":{"type":"Point","coordinates":[2681958.90701422,1248792.84628517]},"properties":{"adresse":"Neugasse 145","name":"Zürich Neugasse / Depot SBB","ort":"Zürich","plz":"8005","www":"http://www.mobility.ch"}}
,{"type":"Feature","geometry":{"type":"Point","coordinates":[2683534.92482145,1251969.84517202]},"properties":{"adresse":"Wattstrasse 6","name":"Zürich Oerlikon Bahnhof / Wattstrasse","ort":"Zürich","plz":"8050","www":"http://www.mobility.ch"}}
,{"type":"Feature","geometry":{"type":"Point","coordinates":[2681382.91571385,1249559.85391287]},"properties":{"adresse":"Förrlibuckstrasse 10","name":"Zürich Förrlibuckstrasse","ort":"Zürich","plz":"8005","www":"http://www.mobility.ch"}}
,{"type":"Feature","geometry":{"type":"Point","coordinates":[2680727.92109001,1249745.85644925]},"properties":{"adresse":"Hardturmstrasse 261","name":"Zürich Kraft - Werk 1","ort":"Zürich","plz":"8005","www":"http://www.mobility.ch"}}
,{"type":"Feature","geometry":{"type":"Point","coordinates":[2682476.88773634,1246474.83679916]},"properties":{"adresse":"Grütlistrasse 4","name":"Zürich Enge Bahnhof","ort":"Zürich","plz":"8002","www":"http://www.mobility.ch"}}
,{"type":"Feature","geometry":{"type":"Point","coordinates":[2683978.90273235,1246599.83491758]},"properties":{"adresse":"Mühlebachstrasse 25 - 27","name":"Zürich Stadelhofen / Mühlebachstrasse","ort":"Zürich","plz":"8008","www":"http://www.mobility.ch"}}
,{"type":"Feature","geometry":{"type":"Point","coordinates":[2682597.9007526,1248355.84027666]},"properties":{"adresse":"Zollstrasse 62","name":"Zürich Zollstrasse","ort":"Zürich","plz":"8005","www":"http://www.mobility.ch"}}
,{"type":"Feature","geometry":{"type":"Point","coordinates":[2684746.96643668,1256128.8368174]},"properties":{"adresse":"Vorfahrtsstrasse ","name":"Zürich Flughafen Bahnhof","ort":"Zürich","plz":"8058","www":"http://www.mobility.ch"}}
,{"type":"Feature","geometry":{"type":"Point","coordinates":[2682511.90326175,1248598.84201189]},"properties":{"adresse":"Josefstrasse 84","name":"Zürich Josefstrasse / Johannesgasse","ort":"Zürich","plz":"8005","www":"http://www.mobility.ch"}}
,{"type":"Feature","geometry":{"type":"Point","coordinates":[2681325.89960657,1247847.84650179]},"properties":{"adresse":"Hildastrasse 4","name":"Zürich Sihlfeld / Hildastrasse","ort":"Zürich","plz":"8004","www":"http://www.mobility.ch"}}
,{"type":"Feature","geometry":{"type":"Point","coordinates":[2680448.935024,1251431.86002523]},"properties":{"adresse":"Einsteinstrasse ","name":"Zürich ETH Hönggerberg / Einsteinstrasse","ort":"Zürich","plz":"8093","www":"http://www.mobility.ch"}}
,{"type":"Feature","geometry":{"type":"Point","coordinates":[2683347.89781118,1248345.83590304]},"properties":{"adresse":"Stampfenbachstrasse 57","name":"Zürich Stampfenbachplatz / Walchestrasse","ort":"Zürich","plz":"8006","www":"http://www.mobility.ch"}}
,{"type":"Feature","geometry":{"type":"Point","coordinates":[2681162.8879242,1245716.85161366]},"properties":{"adresse":"Hegianwandweg 28","name":"Zürich Friesenberg / Hegianwandweg","ort":"Zürich","plz":"8045","www":"http://www.mobility.ch"}}
,{"type":"Feature","geometry":{"type":"Point","coordinates":[2680691.93475245,1252044.8631234]},"properties":{"adresse":"Lerchenrain 7","name":"Zürich Oberaffoltern / Lerchenrain","ort":"Zürich","plz":"8046","www":"http://www.mobility.ch"}}
,{"type":"Feature","geometry":{"type":"Point","coordinates":[2683771.93604123,1252972.83960839]},"properties":{"adresse":"Katzenbachstrasse 16","name":"Zürich Seebach VBZ Haltestelle","ort":"Zürich","plz":"8052","www":"http://www.mobility.ch"}}
,{"type":"Feature","geometry":{"type":"Point","coordinates":[2679190.90088262,1248026.8652015]},"properties":{"adresse":"Flurstrasse 130","name":"Zürich Albisrieden / Pflegezentrum Bachwiesen","ort":"Zürich","plz":"8047","www":"http://www.mobility.ch"}}
,{"type":"Feature","geometry":{"type":"Point","coordinates":[2687212.91155594,1250572.82963123]},"properties":{"adresse":"Helen-Keller-Strasse 12","name":"Zürich Pflegezentrum Mattenhof / Helen-Keller-Strasse","ort":"Zürich","plz":"8051","www":"http://www.mobility.ch"}}
,{"type":"Feature","geometry":{"type":"Point","coordinates":[2683104.91046428,1249733.84366072]},"properties":{"adresse":"Schaffhauserstrasse 78","name":"Zürich Schaffhauserplatz / Kantonale Verwaltung","ort":"Zürich","plz":"8050","www":"http://www.mobility.ch"}}
,{"type":"Feature","geometry":{"type":"Point","coordinates":[2685670.8891473,1245528.80681124]},"properties":{"adresse":"August-Forel-Strasse 31-33","name":"Zürich Balgrist","ort":"Zürich","plz":"8008","www":"http://www.mobility.ch"}}
,{"type":"Feature","geometry":{"type":"Point","coordinates":[2682853.92241881,1251359.84936188]},"properties":{"adresse":"Birchstrasse 95","name":"Zürich Unterstrass / Birchplatz","ort":"Zürich","plz":"8050","www":"http://www.mobility.ch"}}
,{"type":"Feature","geometry":{"type":"Point","coordinates":[2683872.90124715,1247049.83484441]},"properties":{"adresse":"Promenadengasse 11","name":"Zürich Stadelhofen / Promenadengasse","ort":"Zürich","plz":"8001","www":"http://www.mobility.ch"}}
,{"type":"Feature","geometry":{"type":"Point","coordinates":[2680723.93676484,1252595.86522574]},"properties":{"adresse":"In Böden 169","name":"Zürich Affoltern / In Böden","ort":"Zürich","plz":"8046","www":"http://www.mobility.ch"}}
,{"type":"Feature","geometry":{"type":"Point","coordinates":[2677362.97750529,1253765.91004494]},"properties":{"adresse":"Untere Mühlestrasse 15","name":"Regensdorf Untere Mühlestrasse","ort":"Regensdorf","plz":"8105","www":"http://www.mobility.ch"}}
,{"type":"Feature","geometry":{"type":"Point","coordinates":[2680085.93351577,1250718.85893884]},"properties":{"adresse":"Gsteigstrasse 8","name":"Zürich Höngg / Gsteigstrasse","ort":"Zürich","plz":"8049","www":"http://www.mobility.ch"}}
,{"type":"Feature","geometry":{"type":"Point","coordinates":[2683080.90500466,1249033.84095144]},"properties":{"adresse":"Lindenbachstrasse 1","name":"Zürich Kornhausbrücke / Parkhaus Stampfenbach","ort":"Zürich","plz":"8006","www":"http://www.mobility.ch"}}
,{"type":"Feature","geometry":{"type":"Point","coordinates":[2682262.91560953,1249905.84978367]},"properties":{"adresse":"Guthirtstrasse 10","name":"Zürich Wipkingen / Guthirtstrasse","ort":"Zürich","plz":"8037","www":"http://www.mobility.ch"}}
,{"type":"Feature","geometry":{"type":"Point","coordinates":[2681546.90900771,1248895.84970582]},"properties":{"adresse":"Geroldstrasse 31 / 33","name":"Zürich Hardbrücke Bahnhof / Geroldstrasse","ort":"Zürich","plz":"8005","www":"http://www.mobility.ch"}}
,{"type":"Feature","geometry":{"type":"Point","coordinates":[2683317.90204711,1248804.83841735]},"properties":{"adresse":"Kurvenstrasse 25","name":"Zürich Unterstrass / Kurvenstrasse","ort":"Zürich","plz":"8006","www":"http://www.mobility.ch"}}
,{"type":"Feature","geometry":{"type":"Point","coordinates":[2689609.851488,1242923.81626823]},"properties":{"adresse":"Unterdorfstrasse 11","name":"Zumikon Unterdorf","ort":"Zumikon","plz":"8126","www":"http://www.mobility.ch"}}
,{"type":"Feature","geometry":{"type":"Point","coordinates":[2679812.90988405,1248473.85793082]},"properties":{"adresse":"Flüelastrasse 31","name":"Zürich Altstetten / Flüelastr. / Überbauung James","ort":"Zürich","plz":"8047","www":"http://www.mobility.ch"}}
,{"type":"Feature","geometry":{"type":"Point","coordinates":[2681942.88584058,1245643.84360163]},"properties":{"adresse":"Büttenweg 16","name":"Zürich Sihlcity","ort":"Zürich","plz":"8045","www":"http://www.mobility.ch"}}
,{"type":"Feature","geometry":{"type":"Point","coordinates":[2687028.88783696,1245787.80164467]},"properties":{"adresse":"Stodolastrasse 22","name":"Zürich Witikon / Stodolastrasse","ort":"Zürich","plz":"8053","www":"http://www.mobility.ch"}}
,{"type":"Feature","geometry":{"type":"Point","coordinates":[2682412.90967278,1249270.8460104]},"properties":{"adresse":"Wasserwerkstrasse 129","name":"Zürich Wipkingen / Wasserwerkstrasse","ort":"Zürich","plz":"8037","www":"http://www.mobility.ch"}}
,{"type":"Feature","geometry":{"type":"Point","coordinates":[2681406.89006615,1246434.84799958]},"properties":{"adresse":"Binzallee 6","name":"Zürich Binz / Binzallee","ort":"Zürich","plz":"8055","www":"http://www.mobility.ch"}}
,{"type":"Feature","geometry":{"type":"Point","coordinates":[2683096.90754805,1249323.84233853]},"properties":{"adresse":"Schindlersteig 1","name":"Zürich Schaffhauserstr. / Ecke Schindlersteig","ort":"Zürich","plz":"8006","www":"http://www.mobility.ch"}}
,{"type":"Feature","geometry":{"type":"Point","coordinates":[2683595.91155362,1250251.8418055]},"properties":{"adresse":"Winterthurerstrasse 190","name":"Zürich Universität Irchel","ort":"Zürich","plz":"8057","www":"http://www.mobility.ch"}}
,{"type":"Feature","geometry":{"type":"Point","coordinates":[2679232.93300658,1250170.86029253]},"properties":{"adresse":"Tüffenwies 33-C","name":"Zürich Altstetten / Tüffenwies","ort":"Zürich","plz":"8064","www":"http://www.mobility.ch"}}
,{"type":"Feature","geometry":{"type":"Point","coordinates":[2682157.88174993,1243853.83877074]},"properties":{"adresse":"Verenastrasse 7","name":"Zürich Wollishofen / Verenastrasse","ort":"Zürich","plz":"8038","www":"http://www.mobility.ch"}}
,{"type":"Feature","geometry":{"type":"Point","coordinates":[2681806.89085489,1246827.84322881]},"properties":{"adresse":"Dubsstrasse 31","name":"Zürich Manesseplatz / Dubsstrasse","ort":"Zürich","plz":"8003","www":"http://www.mobility.ch"}}
,{"type":"Feature","geometry":{"type":"Point","coordinates":[2681980.90204386,1248274.84376176]},"properties":{"adresse":"Feldstrasse 133","name":"Zürich Aussersihl / Feldstrasse","ort":"Zürich","plz":"8004","www":"http://www.mobility.ch"}}
,{"type":"Feature","geometry":{"type":"Point","coordinates":[2682564.87989009,1244244.83730368]},"properties":{"adresse":"Albisstrasse 33","name":"Zürich Wollishofen / Albisstrasse","ort":"Zürich","plz":"8038","www":"http://www.mobility.ch"}}
,{"type":"Feature","geometry":{"type":"Point","coordinates":[2684720.94294561,1253787.829588]},"properties":{"adresse":"Giebeleichstrasse 2","name":"Opfikon Bahnhof / Giebeleichstrasse","ort":"Opfikon","plz":"8152","www":"http://www.mobility.ch"}}
,{"type":"Feature","geometry":{"type":"Point","coordinates":[2682716.89775877,1248072.83814721]},"properties":{"adresse":"Freischützgasse 30","name":"Zürich Hauptbahnhof","ort":"Zürich","plz":"8004","www":"http://www.mobility.ch"}}
,{"type":"Feature","geometry":{"type":"Point","coordinates":[2679449.9245704,1249418.85894173]},"properties":{"adresse":"Hohlstrasse 550","name":"Zürich Altstetten Bahnhof","ort":"Zürich","plz":"8048","www":"http://www.mobility.ch"}}
]}
